{
  "norad_id": 51644,
  "name": "ONEWEB-0452",
  "history": [
    {
      "epoch": "2026-03-28T20:48:01.171008Z",
      "apogee_km": 1194.9531178785264,
      "perigee_km": 1192.4565301923049,
      "latitude_deg": -9.679440931864811e-07,
      "longitude_deg": -116.455954153426,
      "height_km": 1196.5221504368676,
      "semi_major_axis_km": 7571.841824035416,
      "eccentricity": 0.00016486,
      "inclination_deg": 87.9178,
      "raan_deg": 21.8299,
      "arg_perigee_deg": 86.3947,
      "mean_anomaly_deg": 273.7373,
      "mean_motion_rev_day": 13.17651202
    },
    {
      "epoch": "2026-03-29T04:05:24.659520Z",
      "apogee_km": 1194.9555083873665,
      "perigee_km": 1192.4537719094606,
      "latitude_deg": -5.080897380192592e-05,
      "longitude_deg": 133.83639145157701,
      "height_km": 1196.5336211932183,
      "semi_major_axis_km": 7571.841640148413,
      "eccentricity": 0.0001652,
      "inclination_deg": 87.9177,
      "raan_deg": 21.7695,
      "arg_perigee_deg": 86.9368,
      "mean_anomaly_deg": 273.1952,
      "mean_motion_rev_day": 13.1765125
    },
    {
      "epoch": "2026-03-30T01:57:35.093088Z",
      "apogee_km": 1194.983552775083,
      "perigee_km": 1192.419728211412,
      "latitude_deg": 7.547119158085191e-05,
      "longitude_deg": 164.71397222016432,
      "height_km": 1196.535417207721,
      "semi_major_axis_km": 7571.838640493247,
      "eccentricity": 0.0001693,
      "inclination_deg": 87.9179,
      "raan_deg": 21.5887,
      "arg_perigee_deg": 87.2296,
      "mean_anomaly_deg": 272.903,
      "mean_motion_rev_day": 13.17652033
    },
    {
      "epoch": "2026-03-30T05:36:16.844256Z",
      "apogee_km": 1194.9963090781912,
      "perigee_km": 1192.4097685209363,
      "latitude_deg": 2.5116312538468085e-06,
      "longitude_deg": 109.86011456446249,
      "height_km": 1196.537482603062,
      "semi_major_axis_km": 7571.840038799563,
      "eccentricity": 0.0001708,
      "inclination_deg": 87.918,
      "raan_deg": 21.5585,
      "arg_perigee_deg": 87.2842,
      "mean_anomaly_deg": 272.8485,
      "mean_motion_rev_day": 13.17651668
    },
    {
      "epoch": "2026-03-30T07:25:37.739712Z",
      "apogee_km": 1195.0003241565073,
      "perigee_km": 1192.4054546264133,
      "latitude_deg": 3.97984445890682e-05,
      "longitude_deg": 82.43310537802282,
      "height_km": 1196.5370511971519,
      "semi_major_axis_km": 7571.83988939146,
      "eccentricity": 0.00017135,
      "inclination_deg": 87.9181,
      "raan_deg": 21.5434,
      "arg_perigee_deg": 87.2811,
      "mean_anomaly_deg": 272.8517,
      "mean_motion_rev_day": 13.17651707
    },
    {
      "epoch": "2026-03-30T20:11:03.848064Z",
      "apogee_km": 1195.0063359974383,
      "perigee_km": 1192.3981402534746,
      "latitude_deg": -6.421278784525332e-05,
      "longitude_deg": -109.5550043055575,
      "height_km": 1196.5398886597297,
      "semi_major_axis_km": 7571.839238125456,
      "eccentricity": 0.00017223,
      "inclination_deg": 87.9181,
      "raan_deg": 21.438,
      "arg_perigee_deg": 87.4484,
      "mean_anomaly_deg": 272.6844,
      "mean_motion_rev_day": 13.17651877
    },
    {
      "epoch": "2026-03-31T07:07:09.118848Z",
      "apogee_km": 1195.0153273725546,
      "perigee_km": 1192.3922902795612,
      "latitude_deg": 2.5917599947964947e-05,
      "longitude_deg": 85.88336178072927,
      "height_km": 1196.5385307430424,
      "semi_major_axis_km": 7571.840808826058,
      "eccentricity": 0.00017321,
      "inclination_deg": 87.9183,
      "raan_deg": 21.3474,
      "arg_perigee_deg": 87.3361,
      "mean_anomaly_deg": 272.7969,
      "mean_motion_rev_day": 13.17651467
    },
    {
      "epoch": "2026-04-01T12:16:43.039200Z",
      "apogee_km": 1194.992458894917,
      "perigee_km": 1192.4104619799073,
      "latitude_deg": 3.21941747867666e-05,
      "longitude_deg": 7.0538939038554425,
      "height_km": 1196.5427936753008,
      "semi_major_axis_km": 7571.838460437411,
      "eccentricity": 0.0001705,
      "inclination_deg": 87.9183,
      "raan_deg": 21.1068,
      "arg_perigee_deg": 87.5853,
      "mean_anomaly_deg": 272.5474,
      "mean_motion_rev_day": 13.1765208
    },
    {
      "epoch": "2026-04-02T17:26:17.357856Z",
      "apogee_km": 1195.0062515683312,
      "perigee_km": 1192.4151652825076,
      "latitude_deg": -3.068367015555851e-05,
      "longitude_deg": -71.77744112664271,
      "height_km": 1196.5434632730803,
      "semi_major_axis_km": 7571.847708425419,
      "eccentricity": 0.0001711,
      "inclination_deg": 87.9181,
      "raan_deg": 20.866,
      "arg_perigee_deg": 87.2143,
      "mean_anomaly_deg": 272.9184,
      "mean_motion_rev_day": 13.17649666
    },
    {
      "epoch": "2026-04-02T17:26:17.358720Z",
      "apogee_km": 1195.0061758498541,
      "perigee_km": 1192.4152410009847,
      "latitude_deg": -2.953706821234794e-05,
      "longitude_deg": -71.77744469503067,
      "height_km": 1196.5434669541232,
      "semi_major_axis_km": 7571.847708425419,
      "eccentricity": 0.00017109,
      "inclination_deg": 87.9181,
      "raan_deg": 20.866,
      "arg_perigee_deg": 87.2143,
      "mean_anomaly_deg": 272.9184,
      "mean_motion_rev_day": 13.17649666
    },
    {
      "epoch": "2026-04-03T18:57:09.744768Z",
      "apogee_km": 1195.0170926803576,
      "perigee_km": 1192.4078333554016,
      "latitude_deg": 2.5417457823795304e-05,
      "longitude_deg": -95.7545631798163,
      "height_km": 1196.554489357932,
      "semi_major_axis_km": 7571.849463017879,
      "eccentricity": 0.0001723,
      "inclination_deg": 87.9181,
      "raan_deg": 20.655,
      "arg_perigee_deg": 87.6426,
      "mean_anomaly_deg": 272.4903,
      "mean_motion_rev_day": 13.17649208
    },
    {
      "epoch": "2026-04-04T05:53:15.098496Z",
      "apogee_km": 1195.0161626421004,
      "perigee_km": 1192.4165939402665,
      "latitude_deg": -6.9249832096292245e-06,
      "longitude_deg": 99.68365108161169,
      "height_km": 1196.5678936529719,
      "semi_major_axis_km": 7571.853378291184,
      "eccentricity": 0.00017166,
      "inclination_deg": 87.9181,
      "raan_deg": 20.5646,
      "arg_perigee_deg": 88.0517,
      "mean_anomaly_deg": 272.0811,
      "mean_motion_rev_day": 13.17648186
    },
    {
      "epoch": "2026-04-05T12:52:10.227936Z",
      "apogee_km": 1195.0064144575845,
      "perigee_km": 1192.4251698407415,
      "latitude_deg": -7.179586616774861e-05,
      "longitude_deg": -6.574743664794909,
      "height_km": 1196.573783938798,
      "semi_major_axis_km": 7571.852792149163,
      "eccentricity": 0.00017045,
      "inclination_deg": 87.9184,
      "raan_deg": 20.3083,
      "arg_perigee_deg": 88.324,
      "mean_anomaly_deg": 271.8086,
      "mean_motion_rev_day": 13.17648339
    },
    {
      "epoch": "2026-04-05T18:20:12.909984Z",
      "apogee_km": 1195.0082744168349,
      "perigee_km": 1192.4247579971052,
      "latitude_deg": 1.2673599350006933e-05,
      "longitude_deg": -88.8555548372402,
      "height_km": 1196.5719370183533,
      "semi_major_axis_km": 7571.85351620697,
      "eccentricity": 0.0001706,
      "inclination_deg": 87.9184,
      "raan_deg": 20.2632,
      "arg_perigee_deg": 88.2121,
      "mean_anomaly_deg": 271.9206,
      "mean_motion_rev_day": 13.1764815
    },
    {
      "epoch": "2026-04-06T05:16:18.183360Z",
      "apogee_km": 1195.0105798461664,
      "perigee_km": 1192.4179779682672,
      "latitude_deg": -5.9292388144865845e-05,
      "longitude_deg": 106.58289298941517,
      "height_km": 1196.575724962552,
      "semi_major_axis_km": 7571.8512789072165,
      "eccentricity": 0.0001712,
      "inclination_deg": 87.9184,
      "raan_deg": 20.1727,
      "arg_perigee_deg": 88.4847,
      "mean_anomaly_deg": 271.648,
      "mean_motion_rev_day": 13.17648734
    },
    {
      "epoch": "2026-04-07T12:15:13.357728Z",
      "apogee_km": 1195.044579909747,
      "perigee_km": 1192.3888279416315,
      "latitude_deg": -3.5939643499653116e-05,
      "longitude_deg": 0.32461196524457553,
      "height_km": 1196.5752816132947,
      "semi_major_axis_km": 7571.853703925689,
      "eccentricity": 0.00017537,
      "inclination_deg": 87.9184,
      "raan_deg": 19.9167,
      "arg_perigee_deg": 88.4003,
      "mean_anomaly_deg": 271.7329,
      "mean_motion_rev_day": 13.17648101
    },
    {
      "epoch": "2026-04-07T17:43:16.043232Z",
      "apogee_km": 1195.053425825984,
      "perigee_km": 1192.3790472628361,
      "latitude_deg": -7.585679009500095e-05,
      "longitude_deg": -81.95631840458634,
      "height_km": 1196.5719637801378,
      "semi_major_axis_km": 7571.85323654441,
      "eccentricity": 0.0001766,
      "inclination_deg": 87.9185,
      "raan_deg": 19.8715,
      "arg_perigee_deg": 88.2899,
      "mean_anomaly_deg": 271.8434,
      "mean_motion_rev_day": 13.17648223
    },
    {
      "epoch": "2026-04-08T11:56:44.900160Z",
      "apogee_km": 1195.0604349389068,
      "perigee_km": 1192.369095947398,
      "latitude_deg": -3.717366268257371e-06,
      "longitude_deg": 3.77428358588986,
      "height_km": 1196.570070832376,
      "semi_major_axis_km": 7571.8517654431525,
      "eccentricity": 0.00017772,
      "inclination_deg": 87.9185,
      "raan_deg": 19.7208,
      "arg_perigee_deg": 88.284,
      "mean_anomaly_deg": 271.8495,
      "mean_motion_rev_day": 13.17648607
    },
    {
      "epoch": "2026-04-09T18:55:39.971712Z",
      "apogee_km": 1195.070804486726,
      "perigee_km": 1192.355539015135,
      "latitude_deg": 1.5126022739657099e-05,
      "longitude_deg": -102.48336844007216,
      "height_km": 1196.5686500828538,
      "semi_major_axis_km": 7571.85017175093,
      "eccentricity": 0.0001793,
      "inclination_deg": 87.9185,
      "raan_deg": 19.465,
      "arg_perigee_deg": 88.3077,
      "mean_anomaly_deg": 271.826,
      "mean_motion_rev_day": 13.17649023
    }
  ]
}